start=new Date('2023-03-23T00:00:00.000Z').valueOf();
sats=[{"FILE":"3867305","PERIAPSIS":"562.029","MEAN_ANOMALY":"277.8554","CLASSIFICATION_TYPE":"U","MEAN_MOTION":"15.01262768","REF_FRAME":"TEME","ELEMENT_SET_NO":"999","TIME_SYSTEM":"UTC","RA_OF_ASC_NODE":"203.6157","INCLINATION":"97.6560","APOAPSIS":"563.977","MEAN_MOTION_DOT":"0.00002696","CENTER_NAME":"EARTH","ECCENTRICITY":"0.00014030","PERIOD":"95.919","MEAN_ELEMENT_THEORY":"SGP4","RCS_SIZE":"LARGE","ARG_OF_PERICENTER":"82.2830","REV_AT_EPOCH":"3367","TLE_LINE1":"1 53472U 22099H   23081.28412119  .00002696  00000-0  21442-3 0  9994","GP_ID":"228631898","MEAN_MOTION_DDOT":"0.0000000000000","DECAY_DATE":null,"EPOCH":"2023-03-22T06:49:08.070816","OBJECT_ID":"2022-099H","LAUNCH_DATE":"2022-08-12","TLE_LINE2":"2 53472  97.6560 203.6157 0001403  82.2830 277.8554 15.01262768 33676","OBJECT_NAME":"STARLINK-4447","EPHEMERIS_TYPE":"0","NORAD_CAT_ID":"53472","SITE":"AFWTR","SEMIMAJOR_AXIS":"6941.138","OBJECT_TYPE":"PAYLOAD","BSTAR":"0.00021442000000","COUNTRY_CODE":"US"},{"OBJECT_NAME":"STARLINK-4383","LAUNCH_DATE":"2022-08-12","OBJECT_ID":"2022-099J","TLE_LINE2":"2 53473  97.6556 203.6777 0001725 100.7615 259.3804 15.01265310 33684","OBJECT_TYPE":"PAYLOAD","COUNTRY_CODE":"US","BSTAR":"0.00041214000000","EPHEMERIS_TYPE":"0","SITE":"AFWTR","NORAD_CAT_ID":"53473","SEMIMAJOR_AXIS":"6941.130","MEAN_ELEMENT_THEORY":"SGP4","PERIOD":"95.919","ECCENTRICITY":"0.00017250","EPOCH":"2023-03-22T08:17:06.925920","DECAY_DATE":null,"MEAN_MOTION_DDOT":"0.0000000000000","GP_ID":"228637822","TLE_LINE1":"1 53473U 22099J   23081.34521905  .00005239  00000-0  41214-3 0  9991","ARG_OF_PERICENTER":"100.7615","RCS_SIZE":"LARGE","REV_AT_EPOCH":"3368","INCLINATION":"97.6556","RA_OF_ASC_NODE":"203.6777","TIME_SYSTEM":"UTC","CENTER_NAME":"EARTH","APOAPSIS":"564.193","MEAN_MOTION_DOT":"0.00005239","PERIAPSIS":"561.798","FILE":"3867578","ELEMENT_SET_NO":"999","CLASSIFICATION_TYPE":"U","MEAN_MOTION":"15.01265310","REF_FRAME":"TEME","MEAN_ANOMALY":"259.3804"},{"RA_OF_ASC_NODE":"203.6708","INCLINATION":"97.6548","TIME_SYSTEM":"UTC","CENTER_NAME":"EARTH","MEAN_MOTION_DOT":"0.00005423","APOAPSIS":"564.242","PERIAPSIS":"561.735","FILE":"3867581","ELEMENT_SET_NO":"999","MEAN_ANOMALY":"252.0353","REF_FRAME":"TEME","MEAN_MOTION":"15.01267682","CLASSIFICATION_TYPE":"U","OBJECT_NAME":"STARLINK-4445","TLE_LINE2":"2 53474  97.6548 203.6708 0001806 108.1068 252.0353 15.01267682 33687","LAUNCH_DATE":"2022-08-12","OBJECT_ID":"2022-099K","SITE":"AFWTR","SEMIMAJOR_AXIS":"6941.123","NORAD_CAT_ID":"53474","EPHEMERIS_TYPE":"0","BSTAR":"0.00042642000000","COUNTRY_CODE":"US","OBJECT_TYPE":"PAYLOAD","PERIOD":"95.919","MEAN_ELEMENT_THEORY":"SGP4","ECCENTRICITY":"0.00018060","MEAN_MOTION_DDOT":"0.0000000000000","DECAY_DATE":null,"EPOCH":"2023-03-22T08:06:48.244032","REV_AT_EPOCH":"3368","ARG_OF_PERICENTER":"108.1068","RCS_SIZE":"LARGE","GP_ID":"228637557","TLE_LINE1":"1 53474U 22099K   23081.33805838  .00005423  00000-0  42642-3 0  9992"},{"ELEMENT_SET_NO":"999","CLASSIFICATION_TYPE":"U","REF_FRAME":"TEME","MEAN_MOTION":"15.01259530","MEAN_ANOMALY":"294.2839","PERIAPSIS":"561.782","FILE":"3866953","CENTER_NAME":"EARTH","APOAPSIS":"564.245","MEAN_MOTION_DOT":"0.00001596","INCLINATION":"97.6570","RA_OF_ASC_NODE":"203.1517","TIME_SYSTEM":"UTC","EPOCH":"2023-03-21T19:26:36.748320","DECAY_DATE":null,"MEAN_MOTION_DDOT":"0.0000000000000","GP_ID":"228621667","TLE_LINE1":"1 53475U 22099L   23080.81014755  .00001596  00000-0  12885-3 0  9998","RCS_SIZE":"LARGE","ARG_OF_PERICENTER":"65.8570","REV_AT_EPOCH":"3406","MEAN_ELEMENT_THEORY":"SGP4","PERIOD":"95.919","ECCENTRICITY":"0.00017740","OBJECT_TYPE":"PAYLOAD","COUNTRY_CODE":"US","BSTAR":"0.00012885000000","EPHEMERIS_TYPE":"0","NORAD_CAT_ID":"53475","SITE":"AFWTR","SEMIMAJOR_AXIS":"6941.148","OBJECT_NAME":"STARLINK-4389","LAUNCH_DATE":"2022-08-12","OBJECT_ID":"2022-099L","TLE_LINE2":"2 53475  97.6570 203.1517 0001774  65.8570 294.2839 15.01259530 34060"},{"BSTAR":"0.00013715000000","COUNTRY_CODE":"US","OBJECT_TYPE":"PAYLOAD","SITE":"AFWTR","SEMIMAJOR_AXIS":"6941.142","NORAD_CAT_ID":"53476","EPHEMERIS_TYPE":"0","TLE_LINE2":"2 53476  97.6551 203.6122 0001705  95.4170 264.7248 15.01261691 33679","LAUNCH_DATE":"2022-08-12","OBJECT_ID":"2022-099M","OBJECT_NAME":"STARLINK-4378","GP_ID":"228631474","TLE_LINE1":"1 53476U 22099M   23081.28041701  .00001703  00000-0  13715-3 0  9995","REV_AT_EPOCH":"3367","ARG_OF_PERICENTER":"95.4170","RCS_SIZE":"LARGE","EPOCH":"2023-03-22T06:43:48.029664","DECAY_DATE":null,"MEAN_MOTION_DDOT":"0.0000000000000","ECCENTRICITY":"0.00017050","MEAN_ELEMENT_THEORY":"SGP4","PERIOD":"95.919","MEAN_MOTION_DOT":"0.00001703","APOAPSIS":"564.190","CENTER_NAME":"EARTH","TIME_SYSTEM":"UTC","INCLINATION":"97.6551","RA_OF_ASC_NODE":"203.6122","MEAN_MOTION":"15.01261691","REF_FRAME":"TEME","CLASSIFICATION_TYPE":"U","MEAN_ANOMALY":"264.7248","ELEMENT_SET_NO":"999","FILE":"3867305","PERIAPSIS":"561.823"},{"MEAN_MOTION_DDOT":"0.0000000000000","DECAY_DATE":null,"EPOCH":"2023-03-22T19:20:58.217568","RCS_SIZE":"LARGE","ARG_OF_PERICENTER":"110.0975","REV_AT_EPOCH":"3375","GP_ID":"228643889","TLE_LINE1":"1 53477U 22099N   23081.80622937  .00005192  00000-0  40839-3 0  9993","PERIOD":"95.919","MEAN_ELEMENT_THEORY":"SGP4","ECCENTRICITY":"0.00017730","EPHEMERIS_TYPE":"0","SEMIMAJOR_AXIS":"6941.110","SITE":"AFWTR","NORAD_CAT_ID":"53477","OBJECT_TYPE":"PAYLOAD","BSTAR":"0.00040839000000","COUNTRY_CODE":"US","OBJECT_NAME":"STARLINK-4412","LAUNCH_DATE":"2022-08-12","OBJECT_ID":"2022-099N","TLE_LINE2":"2 53477  97.6545 204.1314 0001773 110.0975 250.0440 15.01272014 33756","ELEMENT_SET_NO":"999","MEAN_ANOMALY":"250.0440","CLASSIFICATION_TYPE":"U","MEAN_MOTION":"15.01272014","REF_FRAME":"TEME","PERIAPSIS":"561.744","FILE":"3867894","CENTER_NAME":"EARTH","APOAPSIS":"564.205","MEAN_MOTION_DOT":"0.00005192","RA_OF_ASC_NODE":"204.1314","INCLINATION":"97.6545","TIME_SYSTEM":"UTC"},{"EPHEMERIS_TYPE":"0","SEMIMAJOR_AXIS":"6941.125","SITE":"AFWTR","NORAD_CAT_ID":"53478","OBJECT_TYPE":"PAYLOAD","COUNTRY_CODE":"US","BSTAR":"0.00037572000000","OBJECT_ID":"2022-099P","LAUNCH_DATE":"2022-08-12","TLE_LINE2":"2 53478  97.6554 203.6779 0001481 101.7444 258.3947 15.01266968 33686","OBJECT_NAME":"STARLINK-4433","ARG_OF_PERICENTER":"101.7444","RCS_SIZE":"LARGE","REV_AT_EPOCH":"3368","TLE_LINE1":"1 53478U 22099P   23081.34546341  .00004771  00000-0  37572-3 0  9999","GP_ID":"228637814","DECAY_DATE":null,"MEAN_MOTION_DDOT":"0.0000000000000","EPOCH":"2023-03-22T08:17:28.038624","ECCENTRICITY":"0.00014810","PERIOD":"95.919","MEAN_ELEMENT_THEORY":"SGP4","APOAPSIS":"564.018","MEAN_MOTION_DOT":"0.00004771","CENTER_NAME":"EARTH","TIME_SYSTEM":"UTC","RA_OF_ASC_NODE":"203.6779","INCLINATION":"97.6554","MEAN_ANOMALY":"258.3947","CLASSIFICATION_TYPE":"U","MEAN_MOTION":"15.01266968","REF_FRAME":"TEME","ELEMENT_SET_NO":"999","FILE":"3867578","PERIAPSIS":"561.962"},{"INCLINATION":"97.6543","RA_OF_ASC_NODE":"203.6697","TIME_SYSTEM":"UTC","CENTER_NAME":"EARTH","MEAN_MOTION_DOT":"0.00002251","APOAPSIS":"564.183","PERIAPSIS":"561.819","FILE":"3867578","ELEMENT_SET_NO":"999","MEAN_MOTION":"15.01263640","REF_FRAME":"TEME","CLASSIFICATION_TYPE":"U","MEAN_ANOMALY":"266.7295","OBJECT_NAME":"STARLINK-4436","TLE_LINE2":"2 53479  97.6543 203.6697 0001703  93.4124 266.7295 15.01263640 33686","OBJECT_ID":"2022-099Q","LAUNCH_DATE":"2022-08-12","COUNTRY_CODE":"US","BSTAR":"0.00017977000000","OBJECT_TYPE":"PAYLOAD","NORAD_CAT_ID":"53479","SITE":"AFWTR","SEMIMAJOR_AXIS":"6941.136","EPHEMERIS_TYPE":"0","MEAN_ELEMENT_THEORY":"SGP4","PERIOD":"95.919","ECCENTRICITY":"0.00017030","EPOCH":"2023-03-22T08:06:26.936928","DECAY_DATE":null,"MEAN_MOTION_DDOT":"0.0000000000000","TLE_LINE1":"1 53479U 22099Q   23081.33781177  .00002251  00000-0  17977-3 0  9995","GP_ID":"228637819","REV_AT_EPOCH":"3368","ARG_OF_PERICENTER":"93.4124","RCS_SIZE":"LARGE"},{"PERIAPSIS":"561.783","FILE":"3867894","ELEMENT_SET_NO":"999","MEAN_ANOMALY":"262.8615","MEAN_MOTION":"15.01258769","REF_FRAME":"TEME","CLASSIFICATION_TYPE":"U","RA_OF_ASC_NODE":"204.1320","INCLINATION":"97.6543","TIME_SYSTEM":"UTC","CENTER_NAME":"EARTH","MEAN_MOTION_DOT":"0.00003286","APOAPSIS":"564.248","PERIOD":"95.920","MEAN_ELEMENT_THEORY":"SGP4","ECCENTRICITY":"0.00017760","MEAN_MOTION_DDOT":"0.0000000000000","DECAY_DATE":null,"EPOCH":"2023-03-22T19:23:38.353920","REV_AT_EPOCH":"3375","ARG_OF_PERICENTER":"97.2811","RCS_SIZE":"LARGE","GP_ID":"228643768","TLE_LINE1":"1 53480U 22099R   23081.80808280  .00003286  00000-0  26034-3 0  9997","OBJECT_NAME":"STARLINK-4442","TLE_LINE2":"2 53480  97.6543 204.1320 0001776  97.2811 262.8615 15.01258769 33759","LAUNCH_DATE":"2022-08-12","OBJECT_ID":"2022-099R","SITE":"AFWTR","NORAD_CAT_ID":"53480","SEMIMAJOR_AXIS":"6941.151","EPHEMERIS_TYPE":"0","COUNTRY_CODE":"US","BSTAR":"0.00026034000000","OBJECT_TYPE":"PAYLOAD"},{"OBJECT_TYPE":"PAYLOAD","BSTAR":"0.00023659000000","COUNTRY_CODE":"US","EPHEMERIS_TYPE":"0","SITE":"AFWTR","SEMIMAJOR_AXIS":"6941.143","NORAD_CAT_ID":"53481","LAUNCH_DATE":"2022-08-12","OBJECT_ID":"2022-099S","TLE_LINE2":"2 53481  97.6554 203.1432 0001527  52.1291 308.0071 15.01261330 33365","OBJECT_NAME":"STARLINK-4302","GP_ID":"228620167","TLE_LINE1":"1 53481U 22099S   23080.80274467  .00002981  00000-0  23659-3 0  9992","ARG_OF_PERICENTER":"52.1291","RCS_SIZE":"LARGE","REV_AT_EPOCH":"3336","EPOCH":"2023-03-21T19:15:57.139488","DECAY_DATE":null,"MEAN_MOTION_DDOT":"0.0000000000000","ECCENTRICITY":"0.00015270","MEAN_ELEMENT_THEORY":"SGP4","PERIOD":"95.919","APOAPSIS":"564.068","MEAN_MOTION_DOT":"0.00002981","CENTER_NAME":"EARTH","TIME_SYSTEM":"UTC","INCLINATION":"97.6554","RA_OF_ASC_NODE":"203.1432","CLASSIFICATION_TYPE":"U","MEAN_MOTION":"15.01261330","REF_FRAME":"TEME","MEAN_ANOMALY":"308.0071","ELEMENT_SET_NO":"999","FILE":"3866953","PERIAPSIS":"561.948"}];
